OBJECT_NAME,OBJECT_ID,EPOCH,MEAN_MOTION,ECCENTRICITY,INCLINATION,RA_OF_ASC_NODE,ARG_OF_PERICENTER,MEAN_ANOMALY,EPHEMERIS_TYPE,CLASSIFICATION_TYPE,NORAD_CAT_ID,ELEMENT_SET_NO,REV_AT_EPOCH,BSTAR,MEAN_MOTION_DOT,MEAN_MOTION_DDOT
BEIDOU-2 IGSO-5 (C10),2011-073A,2026-07-02T17:30:18.330912,1.00270596,.01145273,47.6496,271.3544,222.0502,141.5350,0,U,37948,999,5329,0,-.128E-5,0
LUCH 5A (SDCM/PRN 140),2011-074B,2026-07-20T20:46:04.601856,1.00274410,.00028241,8.8372,73.3107,60.5669,283.3004,0,U,37951,999,5338,0,-.55E-6,0
BEIDOU-2 G5 (C05),2012-008A,2026-07-21T03:55:38.609184,1.00272519,.00071958,3.6567,69.4856,270.8620,76.1459,0,U,38091,999,5270,0,.55E-6,0
BEIDOU-2 M3 (C11),2012-018A,2026-07-20T11:31:22.623744,1.86229649,.0021072,55.7268,303.7525,272.1395,87.6505,0,U,38250,999,9656,0,-.102E-5,0
BEIDOU-2 M4 (C12),2012-018B,2026-07-19T21:00:44.744832,1.86229306,.00122384,55.6273,302.9841,272.0265,87.8661,0,U,38251,999,9655,0,-.99E-6,0
SES-5 (EGNOS/PRN 136),2012-036A,2026-07-21T06:15:41.815296,1.00273402,.00021425,0.0455,317.5834,161.0751,279.2640,0,U,38652,999,4479,0,.35E-6,0
BEIDOU-2 M6 (C14),2012-050B,2026-07-20T02:55:43.188960,1.86230986,.00127267,56.5733,61.8055,2.2324,357.8361,0,U,38775,999,9392,0,-.77E-6,0
GSAT-10 (GAGAN/PRN 128),2012-051B,2026-07-21T03:12:39.252960,1.00272712,.00076122,0.0756,263.8024,191.9959,334.2725,0,U,38779,999,5043,0,-.164E-5,0
GPS BIIF-3  (PRN 24),2012-053A,2026-07-19T17:21:06.151104,2.00568051,.01823199,53.5900,142.2664,66.3029,295.5767,0,U,38833,999,10009,0,.24E-6,0
GSAT0103 (GALILEO-FM3),2012-055A,2026-07-19T03:38:04.424640,1.70473478,.0003622,55.8248,100.6680,312.6356,47.3724,0,U,38857,999,8555,0,-.35E-6,0
BEIDOU-2 G6 (C02),2012-059A,2026-07-21T00:12:39.456000,1.00273095,.00089087,4.5052,73.1585,328.3682,344.4330,0,U,38953,999,5024,0,-.178E-5,0
COSMOS 2485 (747),2013-019A,2026-07-20T05:27:30.719232,2.13103050,.00225577,65.4381,72.4960,230.6909,129.1761,0,U,39155,999,10298,0,-.49E-6,0
GPS BIIF-4  (PRN 27),2013-023A,2026-07-20T02:08:43.829088,2.00563399,.0141392,54.4792,267.6316,51.1093,310.2110,0,U,39166,999,9654,0,-.38E-6,0
IRNSS-1A,2013-034A,2026-07-21T04:47:08.434752,1.00271492,.00186752,35.7933,63.3827,179.4943,182.8995,0,U,39199,999,4771,0,.51E-6,0
GPS BIIF-5  (PRN 30),2014-008A,2026-07-20T02:11:25.103328,2.00561932,.008405,53.6581,147.9776,231.5729,127.6475,0,U,39533,999,9034,0,.31E-6,0
ASTRA 5B (EGNOS/PRN 123),2014-011B,2026-07-21T06:20:56.312160,1.00271622,.00021503,0.0643,310.0503,177.1556,290.4948,0,U,39617,999,4500,0,.138E-5,0
COSMOS 2492 (754),2014-012A,2026-07-20T04:28:16.369248,2.13103109,.00103044,65.2760,312.8143,316.7836,43.1566,0,U,39620,999,9594,0,-.83E-6,0
IRNSS-1B,2014-017A,2026-07-21T04:47:08.434752,1.00267488,.00213598,28.8748,239.8183,191.2399,354.8007,0,U,39635,999,4513,0,.135E-5,0
LUCH 5V (SDCM/PRN 141),2014-023A,2026-07-21T00:27:56.755296,1.00271961,.00022028,5.2147,69.3938,79.5854,251.5347,0,U,39727,999,4469,0,-.272E-5,0
GPS BIIF-6  (PRN 06),2014-026A,2026-07-20T08:49:09.502176,2.00558630,.00381711,56.4802,330.2261,325.6400,34.1182,0,U,39741,999,8920,0,-.107E-5,0
COSMOS 2500 (755),2014-032A,2026-07-20T08:32:07.069632,2.13105793,.00084802,65.2111,312.5528,191.4988,168.5032,0,U,40001,999,9416,0,-.83E-6,0
GPS BIIF-7  (PRN 09),2014-045A,2026-07-20T22:59:04.085952,2.00560707,.00346564,55.3751,87.1193,118.4770,241.9232,0,U,40105,999,8675,0,-.61E-6,0
GSAT0201 (GALILEO 5),2014-050A,2026-07-20T20:00:57.802176,1.85519911,.16792862,48.8385,272.0546,180.7098,179.0701,0,U,40128,999,7894,0,-.62E-6,0
GSAT0202 (GALILEO 6),2014-050B,2026-07-17T20:31:57.990720,1.85520332,.16801746,48.8588,271.2629,181.3093,178.2437,0,U,40129,999,8105,0,-.54E-6,0
IRNSS-1C,2014-061A,2026-07-20T16:56:40.720704,1.00271443,.00219392,6.5999,88.2929,6.0783,181.3257,0,U,40269,999,4302,0,-.167E-5,0
GPS BIIF-8  (PRN 03),2014-068A,2026-07-20T07:51:42.600960,2.00553617,.00674439,57.0105,29.6792,72.4547,288.3175,0,U,40294,999,8587,0,-.86E-6,0
COSMOS 2501 (702K),2014-075A,2026-07-20T03:34:16.162752,2.13101297,.00226918,63.6185,189.2310,212.6383,147.2200,0,U,40315,999,9055,0,.81E-6,0
GPS BIIF-9  (PRN 26),2015-013A,2026-07-20T23:12:44.735616,2.00574219,.01103224,53.1254,202.7533,40.4930,320.3352,0,U,40534,999,8250,0,.74E-6,0
GSAT0203 (GALILEO 7),2015-017A,2026-07-20T15:33:08.112384,1.70476362,.00028046,56.7747,340.6846,253.6910,106.2721,0,U,40544,999,6977,0,-.108E-5,0
GSAT0204 (GALILEO 8),2015-017B,2026-07-20T07:36:55.747296,1.70475832,.0002939,56.7823,340.7123,234.3577,125.6085,0,U,40545,999,3281,0,-.108E-5,0
